*******************************************************************************
JPL/HORIZONS              2130 Evdokiya (1974 QH1)         2023-Sep-04 11:16:09
Rec #:    2130 (+COV) Soln.date: 2023-Aug-22_16:50:18   # obs: 5920 (1974-2023)
 
IAU76/J2000 helio. ecliptic osc. elements (au, days, deg., period=Julian yrs):
 
  EPOCH=  2457322.5 ! 2015-Oct-27.00 (TDB)         Residual RMS= .29195
   EC= .1893395862022095   QR= 1.825922534151084   TP= 2457045.2040524064
   OM= 350.067873906593    W=  327.0698716807659   IN= 5.61731437094926
   A= 2.252388920284121    MA= 80.85046522275856   ADIST= 2.678855306417157
   PER= 3.38044            N= .291567424           ANGMOM= .025349859
   DAN= 1.87385            DDN= 2.58197            L= 317.2634643
   B= -3.0502123           MOID= .81607801         TP= 2015-Jan-22.7040524064
 
Asteroid physical parameters (km, seconds, rotational period in hours):
   GM= n.a.                RAD= 2.682              ROTPER= 4.354
   H= 13.42                G= .150                 B-V= n.a.
                           ALBEDO= .387            STYP= n.a.

ASTEROID comments: 
1: soln ref.= JPL#54, OCC=0
2: source=ORB
*******************************************************************************


*******************************************************************************
Ephemeris / API_USER Mon Sep  4 11:16:09 2023 Pasadena, USA      / Horizons
*******************************************************************************
Target body name: 2130 Evdokiya (1974 QH1)        {source: JPL#54}
Center body name: Solar System Barycenter (0)     {source: DE441}
Center-site name: BODY CENTER
*******************************************************************************
Start time      : A.D. 2023-Aug-12 00:00:00.0000 TDB
Stop  time      : A.D. 2023-Aug-13 00:00:00.0000 TDB
Step-size       : 2880 minutes
*******************************************************************************
Center geodetic : 0.0, 0.0, 0.0                   {E-lon(deg),Lat(deg),Alt(km)}
Center cylindric: 0.0, 0.0, 0.0                   {E-lon(deg),Dxy(km),Dz(km)}
Center radii    : (undefined)
Small perturbers: Yes                             {source: SB441-N16}
Output units    : KM-S
Calendar mode   : Mixed Julian/Gregorian
Output type     : GEOMETRIC cartesian states
Output format   : 2 (position and velocity)
Reference frame : Ecliptic of J2000.0
*******************************************************************************
Initial IAU76/J2000 heliocentric ecliptic osculating elements (au, days, deg.):
  EPOCH=  2457322.5 ! 2015-Oct-27.00 (TDB)         Residual RMS= .29195        
   EC= .1893395862022095   QR= 1.825922534151084   TP= 2457045.2040524064      
   OM= 350.067873906593    W=  327.0698716807659   IN= 5.61731437094926        
  Equivalent ICRF heliocentric cartesian coordinates (au, au/d):
   X= 1.140626070959808E+00  Y= 1.702516977418898E+00  Z= 9.646851764641675E-01
  VX=-8.581085248295520E-03 VY= 6.632044843972183E-03 VZ= 3.506485360466566E-03
Asteroid physical parameters (km, seconds, rotational period in hours):        
   GM= n.a.                RAD= 2.682              ROTPER= 4.354               
   H= 13.42                G= .150                 B-V= n.a.                   
                           ALBEDO= .387            STYP= n.a.                  
*******************************************************************************
JDTDB
   X     Y     Z
   VX    VY    VZ
*******************************************************************************
$$SOE
2460168.500000000 = A.D. 2023-Aug-12 00:00:00.0000 TDB 
 X =-3.263963153594062E+08 Y = 2.317955693864475E+08 Z = 1.696160481342272E+07
 VX=-9.156394240286291E+00 VY=-1.357681804584429E+01 VZ=-1.468855085223813E+00
$$EOE
*******************************************************************************
 
TIME

  Barycentric Dynamical Time ("TDB" or T_eph) output was requested. This
continuous coordinate time is equivalent to the relativistic proper time
of a clock at rest in a reference frame co-moving with the solar system
barycenter but outside the system's gravity well. It is the independent
variable in the solar system relativistic equations of motion.

  TDB runs at a uniform rate of one SI second per second and is independent
of irregularities in Earth's rotation.
 
CALENDAR SYSTEM

  Mixed calendar mode was active such that calendar dates after AD 1582-Oct-15
(if any) are in the modern Gregorian system. Dates prior to 1582-Oct-5 (if any)
are in the Julian calendar system, which is automatically extended for dates
prior to its adoption on 45-Jan-1 BC.  The Julian calendar is useful for
matching historical dates. The Gregorian calendar more accurately corresponds
to the Earth's orbital motion and seasons. A "Gregorian-only" calendar mode is
available if such physical events are the primary interest.

REFERENCE FRAME AND COORDINATES

  Ecliptic at the standard reference epoch

    Reference epoch: J2000.0
    X-Y plane: adopted Earth orbital plane at the reference epoch
               Note: IAU76 obliquity of 84381.448 arcseconds wrt ICRF X-Y plane
    X-axis   : ICRF
    Z-axis   : perpendicular to the X-Y plane in the directional (+ or -) sense
               of Earth's north pole at the reference epoch.

  Symbol meaning:

    JDTDB    Julian Day Number, Barycentric Dynamical Time
      X      X-component of position vector (km)
      Y      Y-component of position vector (km)
      Z      Z-component of position vector (km)
      VX     X-component of velocity vector (km/sec)                           
      VY     Y-component of velocity vector (km/sec)                           
      VZ     Z-component of velocity vector (km/sec)                           

ABERRATIONS AND CORRECTIONS

 Geometric state vectors have NO corrections or aberrations applied.

Computations by ...

    Solar System Dynamics Group, Horizons On-Line Ephemeris System
    4800 Oak Grove Drive, Jet Propulsion Laboratory
    Pasadena, CA  91109   USA

    General site: https://ssd.jpl.nasa.gov/
    Mailing list: https://ssd.jpl.nasa.gov/email_list.html
    System news : https://ssd.jpl.nasa.gov/horizons/news.html
    User Guide  : https://ssd.jpl.nasa.gov/horizons/manual.html
    Connect     : browser        https://ssd.jpl.nasa.gov/horizons/app.html#/x
                  API            https://ssd-api.jpl.nasa.gov/doc/horizons.html
                  command-line   telnet ssd.jpl.nasa.gov 6775
                  e-mail/batch   https://ssd.jpl.nasa.gov/ftp/ssd/hrzn_batch.txt
                  scripts        https://ssd.jpl.nasa.gov/ftp/ssd/SCRIPTS
    Author      : Jon.D.Giorgini@jpl.nasa.gov
*******************************************************************************
